{"type": "FeatureCollection", "features": [ {"type": "Feature", "properties": {"norad_id": 28649, "name": "IRS-P5 (CARTOSAT-1)", "group": "resource", "lat": 46.51405008934399, "lon": -2.053260554184269, "alt_km": 591.5515888462814, "timestamp": "2025-12-05T05:43:14.770843+00:00", "meta": {"OBJECT_NAME": "IRS-P5 (CARTOSAT-1)", "OBJECT_ID": "2005-017A", "EPOCH": "2025-12-04T15:00:30.138912", "MEAN_MOTION": 14.90362164, "ECCENTRICITY": 0.0001718, "INCLINATION": 97.5498, "RA_OF_ASC_NODE": 5.3988, "ARG_OF_PERICENTER": 52.3867, "MEAN_ANOMALY": 307.7507, "EPHEMERIS_TYPE": 0, "CLASSIFICATION_TYPE": "U", "NORAD_CAT_ID": 28649, "ELEMENT_SET_NO": 999, "REV_AT_EPOCH": 11483, "BSTAR": 0.00042194, "MEAN_MOTION_DOT": 4.054e-05, "MEAN_MOTION_DDOT": 0}, "tle": {"line1": "1 28649U 05017A   25338.62534883  .00004054  00000+0  42194-3 0  9997", "line2": "2 28649  97.5498   5.3988 0001718  52.3867 307.7507 14.90362164114836"}}, "geometry": {"type": "Point", "coordinates": [-2.053260554184269, 46.51405008934399]}}, {"type": "Feature", "properties": {"norad_id": 28893, "name": "SINAH 1", "group": "resource", "lat": 32.16330860360443, "lon": 102.53433610372439, "alt_km": 684.8616789119924, "timestamp": "2025-12-05T05:43:14.770873+00:00", "meta": {"OBJECT_NAME": "SINAH 1", "OBJECT_ID": "2005-043D", "EPOCH": "2025-12-04T16:26:57.181056", "MEAN_MOTION": 14.63948386, "ECCENTRICITY": 0.0014902, "INCLINATION": 98.2601, "RA_OF_ASC_NODE": 107.2214, "ARG_OF_PERICENTER": 161.1396, "MEAN_ANOMALY": 199.0361, "EPHEMERIS_TYPE": 0, "CLASSIFICATION_TYPE": "U", "NORAD_CAT_ID": 28893, "ELEMENT_SET_NO": 999, "REV_AT_EPOCH": 7206, "BSTAR": 0.00019552, "MEAN_MOTION_DOT": 9.76e-06, "MEAN_MOTION_DDOT": 0}, "tle": {"line1": "1 28893U 05043D   25338.68538404  .00000976  00000+0  19552-3 0  9997", "line2": "2 28893  98.2601 107.2214 0014902 161.1396 199.0361 14.63948386 72064"}}, "geometry": {"type": "Point", "coordinates": [102.53433610372439, 32.16330860360443]}}, {"type": "Feature", "properties": {"norad_id": 29079, "name": "EROS B", "group": "resource", "lat": 30.066752958512208, "lon": -80.24389471401412, "alt_km": 370.62978167331767, "timestamp": "2025-12-05T05:43:14.770889+00:00", "meta": {"OBJECT_NAME": "EROS B", "OBJECT_ID": "2006-014A", "EPOCH": "2025-12-04T18:20:38.536224", "MEAN_MOTION": 15.65226036, "ECCENTRICITY": 0.0002064, "INCLINATION": 97.3494, "RA_OF_ASC_NODE": 94.9764, "ARG_OF_PERICENTER": 242.6476, "MEAN_ANOMALY": 117.4573, "EPHEMERIS_TYPE": 0, "CLASSIFICATION_TYPE": "U", "NORAD_CAT_ID": 29079, "ELEMENT_SET_NO": 999, "REV_AT_EPOCH": 8955, "BSTAR": 0.0022255, "MEAN_MOTION_DOT": 0.00225771, "MEAN_MOTION_DDOT": 0}, "tle": {"line1": "1 29079U 06014A   25338.76433491  .00225771  00000+0  22255-2 0  9997", "line2": "2 29079  97.3494  94.9764 0002064 242.6476 117.4573 15.65226036 89558"}}, "geometry": {"type": "Point", "coordinates": [-80.24389471401412, 30.066752958512208]}}, {"type": "Feature", "properties": {"norad_id": 29228, "name": "RESURS-DK 1", "group": "resource", "lat": 68.92240847600617, "lon": -167.25861160786266, "alt_km": 527.8785168792056, "timestamp": "2025-12-05T05:43:14.770900+00:00", "meta": {"OBJECT_NAME": "RESURS-DK 1", "OBJECT_ID": "2006-021A", "EPOCH": "2025-12-04T16:39:05.537376", "MEAN_MOTION": 15.12089965, "ECCENTRICITY": 0.00078, "INCLINATION": 69.9333, "RA_OF_ASC_NODE": 122.6288, "ARG_OF_PERICENTER": 264.441, "MEAN_ANOMALY": 95.5866, "EPHEMERIS_TYPE": 0, "CLASSIFICATION_TYPE": "U", "NORAD_CAT_ID": 29228, "ELEMENT_SET_NO": 999, "REV_AT_EPOCH": 7316, "BSTAR": 0.00035997, "MEAN_MOTION_DOT": 6.111e-05, "MEAN_MOTION_DDOT": 0}, "tle": {"line1": "1 29228U 06021A   25338.69381409  .00006111  00000+0  35997-3 0  9997", "line2": "2 29228  69.9333 122.6288 0007800 264.4410  95.5866 15.12089965 73165"}}, "geometry": {"type": "Point", "coordinates": [-167.25861160786266, 68.92240847600617]}}, {"type": "Feature", "properties": {"norad_id": 29268, "name": "ARIRANG-2 (KOMPSAT-2)", "group": "resource", "lat": -73.99292833323221, "lon": -163.27383157778894, "alt_km": 679.7356478594229, "timestamp": "2025-12-05T05:43:14.770912+00:00", "meta": {"OBJECT_NAME": "ARIRANG-2 (KOMPSAT-2)", "OBJECT_ID": "2006-031A", "EPOCH": "2025-12-04T17:32:33.008640", "MEAN_MOTION": 14.64482859, "ECCENTRICITY": 0.0013913, "INCLINATION": 97.8264, "RA_OF_ASC_NODE": 167.5943, "ARG_OF_PERICENTER": 335.6752, "MEAN_ANOMALY": 154.8625, "EPHEMERIS_TYPE": 0, "CLASSIFICATION_TYPE": "U", "NORAD_CAT_ID": 29268, "ELEMENT_SET_NO": 999, "REV_AT_EPOCH": 3301, "BSTAR": 0.00015459, "MEAN_MOTION_DOT": 7.75e-06, "MEAN_MOTION_DDOT": 0}, "tle": {"line1": "1 29268U 06031A   25338.73093760  .00000775  00000+0  15459-3 0  9998", "line2": "2 29268  97.8264 167.5943 0013913 335.6752 154.8625 14.64482859 33017"}}, "geometry": {"type": "Point", "coordinates": [-163.27383157778894, -73.99292833323221]}}, {"type": "Feature", "properties": {"norad_id": 29709, "name": "LAPAN-TUBSAT", "group": "resource", "lat": 7.224777317395188, "lon": -31.796822294556147, "alt_km": 613.3565127080064, "timestamp": "2025-12-05T05:43:14.770923+00:00", "meta": {"OBJECT_NAME": "LAPAN-TUBSAT", "OBJECT_ID": "2007-001A", "EPOCH": "2025-12-04T18:22:22.651680", "MEAN_MOTION": 14.85652056, "ECCENTRICITY": 0.0013617, "INCLINATION": 98.1252, "RA_OF_ASC_NODE": 328.7584, "ARG_OF_PERICENTER": 97.7615, "MEAN_ANOMALY": 262.5146, "EPHEMERIS_TYPE": 0, "CLASSIFICATION_TYPE": "U", "NORAD_CAT_ID": 29709, "ELEMENT_SET_NO": 999, "REV_AT_EPOCH": 2228, "BSTAR": 0.00015249, "MEAN_MOTION_DOT": 1.266e-05, "MEAN_MOTION_DDOT": 0}, "tle": {"line1": "1 29709U 07001A   25338.76553995  .00001266  00000+0  15249-3 0  9993", "line2": "2 29709  98.1252 328.7584 0013617  97.7615 262.5146 14.85652056 22288"}}, "geometry": {"type": "Point", "coordinates": [-31.796822294556147, 7.224777317395188]}}, {"type": "Feature", "properties": {"norad_id": 31113, "name": "HAIYANG-1B", "group": "resource", "lat": -70.59078373557799, "lon": -11.599307565498364, "alt_km": 802.6282335715732, "timestamp": "2025-12-05T05:43:14.770933+00:00", "meta": {"OBJECT_NAME": "HAIYANG-1B", "OBJECT_ID": "2007-010A", "EPOCH": "2025-12-04T13:16:37.797600", "MEAN_MOTION": 14.30960867, "ECCENTRICITY": 0.0014555, "INCLINATION": 98.3307, "RA_OF_ASC_NODE": 323.1699, "ARG_OF_PERICENTER": 60.6668, "MEAN_ANOMALY": 299.5967, "EPHEMERIS_TYPE": 0, "CLASSIFICATION_TYPE": "U", "NORAD_CAT_ID": 31113, "ELEMENT_SET_NO": 999, "REV_AT_EPOCH": 97279, "BSTAR": 0.00011265, "MEAN_MOTION_DOT": 2.55e-06, "MEAN_MOTION_DDOT": 0}, "tle": {"line1": "1 31113U 07010A   25338.55321525  .00000255  00000+0  11265-3 0  9995", "line2": "2 31113  98.3307 323.1699 0014555  60.6668 299.5967 14.30960867972791"}}, "geometry": {"type": "Point", "coordinates": [-11.599307565498364, -70.59078373557799]}}, {"type": "Feature", "properties": {"norad_id": 31598, "name": "COSMO-SKYMED 1", "group": "resource", "lat": 51.746622335854646, "lon": 154.46646808880467, "alt_km": 574.6511564124394, "timestamp": "2025-12-05T05:43:14.770944+00:00", "meta": {"OBJECT_NAME": "COSMO-SKYMED 1", "OBJECT_ID": "2007-023A", "EPOCH": "2025-12-04T18:14:52.213056", "MEAN_MOTION": 14.95675823, "ECCENTRICITY": 0.000131, "INCLINATION": 97.8837, "RA_OF_ASC_NODE": 164.1078, "ARG_OF_PERICENTER": 79.8247, "MEAN_ANOMALY": 280.3121, "EPHEMERIS_TYPE": 0, "CLASSIFICATION_TYPE": "U", "NORAD_CAT_ID": 31598, "ELEMENT_SET_NO": 999, "REV_AT_EPOCH": 71, "BSTAR": 0.00069767, "MEAN_MOTION_DOT": 7.706e-05, "MEAN_MOTION_DDOT": 0}, "tle": {"line1": "1 31598U 07023A   25338.76032654  .00007706  00000+0  69767-3 0  9999", "line2": "2 31598  97.8837 164.1078 0001310  79.8247 280.3121 14.95675823   714"}}, "geometry": {"type": "Point", "coordinates": [154.46646808880467, 51.746622335854646]}}, {"type": "Feature", "properties": {"norad_id": 31698, "name": "TERRASAR-X", "group": "resource", "lat": 22.79962163775389, "lon": 167.87919703531307, "alt_km": 507.8373448727025, "timestamp": "2025-12-05T05:43:14.770955+00:00", "meta": {"OBJECT_NAME": "TERRASAR-X", "OBJECT_ID": "2007-026A", "EPOCH": "2025-12-04T14:48:18.109728", "MEAN_MOTION": 15.19148632, "ECCENTRICITY": 0.0001896, "INCLINATION": 97.4444, "RA_OF_ASC_NODE": 344.116, "ARG_OF_PERICENTER": 81.1065, "MEAN_ANOMALY": 279.0384, "EPHEMERIS_TYPE": 0, "CLASSIFICATION_TYPE": "U", "NORAD_CAT_ID": 31698, "ELEMENT_SET_NO": 999, "REV_AT_EPOCH": 2368, "BSTAR": 0.00014931, "MEAN_MOTION_DOT": 3.069e-05, "MEAN_MOTION_DDOT": 0}, "tle": {"line1": "1 31698U 07026A   25338.61687627  .00003069  00000+0  14931-3 0  9994", "line2": "2 31698  97.4444 344.1160 0001896  81.1065 279.0384 15.19148632 23687"}}, "geometry": {"type": "Point", "coordinates": [167.87919703531307, 22.79962163775389]}}, {"type": "Feature", "properties": {"norad_id": 32060, "name": "WORLDVIEW-1 (WV-1)", "group": "resource", "lat": 11.236048780794132, "lon": 95.34998971160715, "alt_km": 493.7280350326964, "timestamp": "2025-12-05T05:43:14.770965+00:00", "meta": {"OBJECT_NAME": "WORLDVIEW-1 (WV-1)", "OBJECT_ID": "2007-041A", "EPOCH": "2025-12-04T13:55:05.341152", "MEAN_MOTION": 15.24480866, "ECCENTRICITY": 7.6e-05, "INCLINATION": 97.3841, "RA_OF_ASC_NODE": 96.1774, "ARG_OF_PERICENTER": 96.507, "MEAN_ANOMALY": 263.6254, "EPHEMERIS_TYPE": 0, "CLASSIFICATION_TYPE": "U", "NORAD_CAT_ID": 32060, "ELEMENT_SET_NO": 999, "REV_AT_EPOCH": 1323, "BSTAR": 0.00070212, "MEAN_MOTION_DOT": 0.00017205, "MEAN_MOTION_DDOT": 0}, "tle": {"line1": "1 32060U 07041A   25338.57992293  .00017205  00000+0  70212-3 0  9999", "line2": "2 32060  97.3841  96.1774 0000760  96.5070 263.6254 15.24480866 13230"}}, "geometry": {"type": "Point", "coordinates": [95.34998971160715, 11.236048780794132]}}]}